[{"OBJECT_NAME":"LEMUR-2-MJR092620","OBJECT_ID":"2023-174CN","EPOCH":"2026-03-09T18:24:55.157184","MEAN_MOTION":15.42139644,"ECCENTRICITY":0.00081266,"INCLINATION":97.3983,"RA_OF_ASC_NODE":157.1994,"ARG_OF_PERICENTER":114.5902,"MEAN_ANOMALY":245.6192,"EPHEMERIS_TYPE":0,"CLASSIFICATION_TYPE":"U","NORAD_CAT_ID":58340,"ELEMENT_SET_NO":999,"REV_AT_EPOCH":13031,"BSTAR":0.00032807736,"MEAN_MOTION_DOT":0.00013986,"MEAN_MOTION_DDOT":0},{"OBJECT_NAME":"GHOST-4","OBJECT_ID":"2024-043AM","EPOCH":"2026-03-09T21:24:02.467008","MEAN_MOTION":15.40436625,"ECCENTRICITY":0.00084177,"INCLINATION":97.5443,"RA_OF_ASC_NODE":210.3538,"ARG_OF_PERICENTER":209.2887,"MEAN_ANOMALY":150.7888,"EPHEMERIS_TYPE":0,"CLASSIFICATION_TYPE":"U","NORAD_CAT_ID":59133,"ELEMENT_SET_NO":999,"REV_AT_EPOCH":11223,"BSTAR":0.00046285674,"MEAN_MOTION_DOT":0.00018691,"MEAN_MOTION_DDOT":0}]
